NORAD_CAT_ID,OBJECT_NAME,OBJECT_TYPE,EPOCH,MEAN_MOTION,ECCENTRICITY,INCLINATION,RA_OF_ASC_NODE,ARG_OF_PERICENTER,MEAN_ANOMALY,BSTAR,MEAN_MOTION_DOT,MEAN_MOTION_DDOT,TLE_LINE0,TLE_LINE1,TLE_LINE2,SEMIMAJOR_AXIS,PERIOD,APOGEE,PERIGEE,DECAYED
53859.0,STARLINK-4790,PAYLOAD,2023-03-26 07:11:24,15.08893513,0.000191,53.2171,94.4737,87.8621,272.259,0.0013016,0.00020518,0.0,0 STARLINK-4790,1 53859U 22114AT  23085.29958897  .00020518  00000-0  13016-2 0  9994,2 53859  53.2171  94.4737 0001910  87.8621 272.2590 15.08893513 30090,6917.717,95.434,540.903,538.261,0.0
53859.0,STARLINK-4790,PAYLOAD,2023-03-27 03:51:26,15.08819289,0.0001775,53.2178,90.6073,80.6998,279.4195,-0.00033291,-5.579e-05,0.0,0 STARLINK-4790,1 53859U 22114AT  23086.16072700 -.00005579  00000-0 -33291-3 0  9991,2 53859  53.2178  90.6073 0001775  80.6998 279.4195 15.08819289 29686,6917.944,95.439,541.037,538.581,0.0
53859.0,STARLINK-4790,PAYLOAD,2023-03-27 07:02:12,15.08822429,0.0001747,53.2178,90.0091,99.4501,260.6689,-0.00031934,-5.364e-05,0.0,0 STARLINK-4790,1 53859U 22114AT  23086.29320499 -.00005364  00000-0 -31934-3 0  9990,2 53859  53.2178  90.0091 0001747  99.4501 260.6689 15.08822429 30241,6917.934,95.439,541.008,538.591,0.0
53859.0,STARLINK-4790,PAYLOAD,2023-03-27 16:34:31,15.08826276,0.0001766,53.2189,88.2273,106.8699,253.2487,-0.00025279,-4.307e-05,0.0,0 STARLINK-4790,1 53859U 22114AT  23086.69064533 -.00004307  00000-0 -25279-3 0  9999,2 53859  53.2189  88.2273 0001766 106.8699 253.2487 15.08826276 29769,6917.922,95.438,541.009,538.566,0.0
53859.0,STARLINK-4790,PAYLOAD,2023-03-28 06:53:00,15.08837119,0.0001682,53.2181,85.5509,82.4334,277.6849,0.00090732,0.0001418,0.0,0 STARLINK-4790,1 53859U 22114AT  23087.28680959  .00014180  00000-0  90732-3 0  9995,2 53859  53.2181  85.5509 0001682  82.4334 277.6849 15.08837119 30396,6917.889,95.438,540.918,538.591,0.0
53859.0,STARLINK-4790,PAYLOAD,2023-03-28 16:25:19,15.08834051,0.0001739,53.2179,83.7697,90.1432,269.976,0.00029412,4.395e-05,0.0,0 STARLINK-4790,1 53859U 22114AT  23087.68425290  .00004395  00000-0  29412-3 0  9998,2 53859  53.2179  83.7697 0001739  90.1432 269.9760 15.08834051 30454,6917.899,95.438,540.967,538.561,0.0
53859.0,STARLINK-4790,PAYLOAD,2023-03-29 00:22:15,15.08833206,0.0001681,53.2177,82.2816,87.4441,272.6744,0.00030691,4.599e-05,0.0,0 STARLINK-4790,1 53859U 22114AT  23088.01545540  .00004599  00000-0  30691-3 0  9994,2 53859  53.2177  82.2816 0001681  87.4441 272.6744 15.08833206 29962,6917.901,95.438,540.929,538.603,0.0
53859.0,STARLINK-4790,PAYLOAD,2023-03-29 06:43:47,15.08835881,0.0001818,53.218,81.0944,93.3743,266.7457,0.00031077,4.661e-05,0.0,0 STARLINK-4790,1 53859U 22114AT  23088.28041596  .00004661  00000-0  31077-3 0  9994,2 53859  53.2180  81.0944 0001818  93.3743 266.7457 15.08835881 30540,6917.893,95.438,541.016,538.5,0.0
53859.0,STARLINK-4790,PAYLOAD,2023-03-29 16:16:06,15.08841112,0.0001828,53.2183,79.3104,92.1534,267.9668,0.00033972,5.123e-05,0.0,0 STARLINK-4790,1 53859U 22114AT  23088.67785564  .00005123  00000-0  33972-3 0  9997,2 53859  53.2183  79.3104 0001828  92.1534 267.9668 15.08841112 30605,6917.877,95.437,541.007,538.477,0.0
53859.0,STARLINK-4790,PAYLOAD,2023-03-30 03:23:48,15.0883646,0.0001828,53.2186,77.2303,101.5691,258.5507,0.00014248,1.98e-05,0.0,0 STARLINK-4790,1 53859U 22114AT  23089.14153794  .00001980  00000-0  14248-3 0  9996,2 53859  53.2186  77.2303 0001828 101.5691 258.5507 15.08836460 30131,6917.891,95.438,541.021,538.492,0.0
53859.0,STARLINK-4790,PAYLOAD,2023-03-30 11:20:44,15.08847318,0.0002065,53.2178,75.739,86.9943,273.1285,0.00022793,3.342e-05,0.0,0 STARLINK-4790,1 53859U 22114AT  23089.47273396  .00003342  00000-0  22793-3 0  9991,2 53859  53.2178  75.7390 0002065  86.9943 273.1285 15.08847318 30186,6917.858,95.437,541.152,538.294,0.0
53859.0,STARLINK-4790,PAYLOAD,2023-03-31 03:14:35,15.08840287,0.0001505,53.2186,72.7623,107.7392,252.3764,0.00026274,3.896e-05,0.0,0 STARLINK-4790,1 53859U 22114AT  23090.13513557  .00003896  00000-0  26274-3 0  9994,2 53859  53.2186  72.7623 0001505 107.7392 252.3764 15.08840287 30289,6917.88,95.438,540.786,538.703,0.0
53859.0,STARLINK-4790,PAYLOAD,2023-04-01 04:40:28,15.09214461,0.0001385,53.2179,68.008,75.0121,285.1025,0.0061448,0.00099916,0.0,0 STARLINK-4790,1 53859U 22114AT  23091.19477276  .00099916  00000-0  61448-2 0  9997,2 53859  53.2179  68.0080 0001385  75.0121 285.1025 15.09214461 30441,6916.736,95.414,539.559,537.643,0.0
53859.0,STARLINK-4790,PAYLOAD,2023-04-01 07:51:09,15.09283494,0.0001535,53.2187,67.4077,107.1041,253.0119,0.0068298,0.0011148,0.0,0 STARLINK-4790,1 53859U 22114AT  23091.32719282  .00111480  00000-0  68298-2 0  9999,2 53859  53.2187  67.4077 0001535 107.1041 253.0119 15.09283494 31007,6916.525,95.41,539.452,537.328,0.0
53859.0,STARLINK-4790,PAYLOAD,2023-04-01 15:47:44,15.09458151,8.64e-05,53.2182,65.9234,224.0276,136.0648,0.0069558,0.0011413,0.0,0 STARLINK-4790,1 53859U 22114AT  23091.65815391  .00114130  00000-0  69558-2 0  9998,2 53859  53.2182  65.9234 0000864 224.0276 136.0648 15.09458151 30519,6915.992,95.398,538.454,537.259,0.0
53859.0,STARLINK-4790,PAYLOAD,2023-04-02 09:16:07,15.09888146,0.0001782,53.2179,62.6514,57.0056,303.1108,0.0092177,0.00154002,0.0,0 STARLINK-4790,1 53859U 22114AT  23092.38620185  .00154002  00000-0  92177-2 0  9999,2 53859  53.2179  62.6514 0001782  57.0056 303.1108 15.09888146 30621,6914.678,95.371,537.776,535.311,0.0
53859.0,STARLINK-4790,PAYLOAD,2023-04-02 15:37:17,15.1002682,0.0001701,53.2178,61.4612,69.0767,291.0408,0.009288,0.00155812,0.0,0 STARLINK-4790,1 53859U 22114AT  23092.65089743  .00155812  00000-0  92880-2 0  9999,2 53859  53.2178  61.4612 0001701  69.0767 291.0408 15.10026820 30666,6914.255,95.363,537.296,534.944,0.0
53859.0,STARLINK-4790,PAYLOAD,2023-04-02 21:58:25,15.10172102,0.0001294,53.2175,60.2675,85.9129,274.2012,0.0068649,0.00114882,0.0,0 STARLINK-4790,1 53859U 22114AT  23092.91557305  .00114882  00000-0  68649-2 0  9990,2 53859  53.2175  60.2675 0001294  85.9129 274.2012 15.10172102 31249,6913.812,95.353,536.571,534.782,0.0
53859.0,STARLINK-4790,PAYLOAD,2023-04-03 06:00:00,15.10487017,0.0001565,53.2177,58.7616,82.7816,297.1224,-0.0018411,-0.00030821,0.0,0 STARLINK-4790,1 53859U 22114AT  23093.25001157 -.00030821  00000-0 -18411-2 0  9991,2 53859  53.2177  58.7616 0001565  82.7816 297.1224 15.10487017 30755,6912.851,95.333,535.798,533.634,0.0
53859.0,STARLINK-4790,PAYLOAD,2023-04-03 14:00:01,15.10478215,0.0001495,53.2177,57.2602,90.1317,303.3314,-0.00047579,-8.205e-05,0.0,0 STARLINK-4790,1 53859U 22114AT  23093.58334491 -.00008205  00000-0 -47579-3 0  9996,2 53859  53.2177  57.2602 0001495  90.1317 303.3314 15.10478215  1304,6912.878,95.334,535.776,533.709,0.0
53859.0,STARLINK-4790,PAYLOAD,2023-04-03 22:00:00,15.10492479,0.0001545,53.2181,55.7596,99.5276,307.4965,0.0013972,0.00023053,0.0,0 STARLINK-4790,1 53859U 22114AT  23093.91667824  .00023053  00000-0  13972-2 0  9997,2 53859  53.2181  55.7596 0001545  99.5276 307.4965 15.10492479 30854,6912.834,95.333,535.767,533.631,0.0
53859.0,STARLINK-4790,PAYLOAD,2023-04-04 08:00:01,15.1044321,0.0001478,53.2179,53.886,96.2126,57.8652,0.0022079,0.0003662,0.0,0 STARLINK-4790,1 53859U 22114AT  23094.33335648  .00036620  00000-0  22079-2 0  9992,2 53859  53.2179  53.8860 0001478  96.2126  57.8652 15.10443210 30912,6912.984,95.336,535.871,533.828,0.0
53859.0,STARLINK-4790,PAYLOAD,2023-04-04 16:00:00,15.10453198,0.0001521,53.218,52.3843,111.4164,56.1518,0.0027842,0.00046331,0.0,0 STARLINK-4790,1 53859U 22114AT  23094.66667824  .00046331  00000-0  27842-2 0  9995,2 53859  53.2180  52.3843 0001521 111.4164  56.1518 15.10453198  1300,6912.954,95.336,535.87,533.767,0.0
53859.0,STARLINK-4790,PAYLOAD,2023-04-05 00:00:00,15.10512927,0.0001522,53.2183,50.8847,110.1675,70.9389,-0.0023181,-0.00038715,0.0,0 STARLINK-4790,1 53859U 22114AT  23095.00001157 -.00038715  00000-0 -23181-2 0  9996,2 53859  53.2183  50.8847 0001522 110.1675  70.9389 15.10512927  1300,6912.772,95.332,535.689,533.585,0.0
53859.0,STARLINK-4790,PAYLOAD,2023-04-05 06:00:00,15.10479087,0.0001384,53.2183,49.7607,101.9076,359.3897,-0.0020485,-0.00034236,0.0,0 STARLINK-4790,1 53859U 22114AT  23095.25001157 -.00034236  00000-0 -20485-2 0  9991,2 53859  53.2183  49.7607 0001384 101.9076 359.3897 15.10479087 31052,6912.875,95.334,535.697,533.783,0.0
53859.0,STARLINK-4790,PAYLOAD,2023-04-05 14:00:01,15.10467704,0.0001297,53.2183,48.2593,108.4494,6.4037,0.00041413,6.607e-05,0.0,0 STARLINK-4790,1 53859U 22114AT  23095.58334491  .00006607  00000-0  41413-3 0  9991,2 53859  53.2183  48.2593 0001297 108.4494   6.4037 15.10467704  1303,6912.91,95.335,535.671,533.878,0.0
53859.0,STARLINK-4790,PAYLOAD,2023-04-05 22:00:00,15.10493075,0.000136,53.2184,46.759,111.3759,17.0251,0.00073654,0.00011995,0.0,0 STARLINK-4790,1 53859U 22114AT  23095.91667824  .00011995  00000-0  73654-3 0  9995,2 53859  53.2184  46.7590 0001360 111.3759  17.0251 15.10493075  1308,6912.832,95.333,535.637,533.757,0.0
53859.0,STARLINK-4790,PAYLOAD,2023-04-06 00:00:00,15.10517456,0.000133,53.2183,46.3847,108.6301,113.1608,-0.0026838,-0.00044744,0.0,0 STARLINK-4790,1 53859U 22114AT  23096.00001157 -.00044744  00000-0 -26838-2 0  9998,2 53859  53.2183  46.3847 0001330 108.6301 113.1608 15.10517456 31168,6912.758,95.332,535.542,533.703,0.0
53859.0,STARLINK-4790,PAYLOAD,2023-04-06 05:22:27,15.10483896,0.0001629,53.2193,45.3783,115.0554,245.0608,0.00013445,1.947e-05,0.0,0 STARLINK-4790,1 53859U 22114AT  23096.22393445  .00001947  00000-0  13445-3 0  9993,2 53859  53.2193  45.3783 0001629 115.0554 245.0608 15.10483896 31200,6912.86,95.334,535.851,533.599,0.0
53859.0,STARLINK-4790,PAYLOAD,2023-04-07 06:46:59,15.10475346,0.0001644,53.2185,40.6112,112.987,247.1297,9.1736e-05,1.235e-05,0.0,0 STARLINK-4790,1 53859U 22114AT  23097.28263308  .00001235  00000-0  91736-4 0  9994,2 53859  53.2185  40.6112 0001644 112.9870 247.1297 15.10475346 31364,6912.886,95.334,535.888,533.615,0.0
